TRANSIT 16              
1 02807U 67048A   13054.91076321  .00000110  00000-0  15791-3 0  8935
2 02807  89.6817 159.7205 0018280 306.9246 156.2763 13.49887523252421
TRANSIT 17              
1 02965U 67092A   13053.91311017  .00000054  00000-0  63196-4 0  1137
2 02965  89.2519  19.7524 0049784 123.6271 246.5646 13.52605935239152
TRANSIT 18              
1 03133U 68012A   13054.20433786  .00000088  00000-0  11914-3 0  3745
2 03133  89.9555 282.1769 0075460  28.9834 118.9606 13.50709209214378
NNSS 19                 
1 04507U 70067A   13054.84362913  .00000097  00000-0  12224-3 0   671
2 04507  89.8267 290.5353 0174106 145.8976 280.4569 13.50340260 91530
NNSS O-20               
1 06909U 73081A   13053.58955013  .00000161  00000-0  15619-3 0  5428
2 06909  89.8620 338.5252 0159419  41.7914  56.4479 13.70022983163383
TRANSAT                 
1 10457U 77106A   13052.93388748  .00000005  00000-0 -78853-5 0  5076
2 10457  89.7409 209.6006 0024943 357.1992 170.1646 13.48382691737307
NOVA I                  
1 12458U 81044A   13054.59546287  .00000041  00000-0  77956-4 0  8314
2 12458  90.0217 123.2192 0014908  40.4064  77.9974 13.22805852533966
NOVA 3                  
1 15362U 84110A   13052.59977102  .00000037  00000-0  68860-4 0  5653
2 15362  90.0103  50.4465 0030232 256.5224 213.7811 13.22579828368931
OSCAR 30                
1 15935U 85066A   13054.52369111  .00000003  00000-0 -68953-5 0  1463
2 15935  90.0949  32.6856 0167416 308.5948 201.7928 13.35401826340502
OSCAR 24                
1 15936U 85066B   13053.52832461  .00000032  00000-0  44333-4 0  7952
2 15936  90.0840  28.3212 0168279 315.0569 168.6924 13.35290529342483
POLAR BEAR              
1 17070U 86088A   13053.95424115  .00000035  00000-0  24779-4 0  9539
2 17070  89.5300  42.9540 0039650 170.1663 217.1601 13.74493578317621
OSCAR 27                
1 18361U 87080A   13054.22591604  .00000062  00000-0  90983-4 0  1111
2 18361  90.3589 280.8362 0103584 287.3457 224.2096 13.44215607247574
OSCAR 29                
1 18362U 87080B   13054.20110377  .00000066  00000-0  98670-4 0  3694
2 18362  90.3596 281.0157 0105275 301.0633 175.9764 13.43829110247299
OSCAR 23                
1 19070U 88033A   13054.01222980  .00000012  00000-0  97554-5 0  5912
2 19070  90.3063 221.3968 0189090 217.7145 291.6564 13.27229516202471
OSCAR 32                
1 19071U 88033B   13053.04671616  .00000008  00000-0  18233-5 0  9454
2 19071  90.3059 221.4514 0187815 211.1439 299.9694 13.27424449202536
NOVA 11                 
1 19223U 88052A   13052.68401323  .00000067  00000-0  14063-3 0  1158
2 19223  89.9819  91.3072 0028712 300.9757 208.2835 13.22508735191472
OSCAR 25                
1 19419U 88074A   13052.98404315  .00000022  00000-0  23100-4 0  3556
2 19419  89.9592  23.2043 0094665 260.9105 163.5121 13.41949381199310
OSCAR 31                
1 19420U 88074B   13052.88920721 -.00000010  00000-0 -32500-4 0   292
2 19420  89.9595  23.1607 0092828 255.4231 162.4334 13.41984056199400
